{
  "type": "FeatureCollection",
  "features": [
    {
      "type": "Feature",
      "properties": {
        "norad_id": 66683,
        "name": "TRANSPORTER-15T",
        "group": "last-30-days",
        "lat": -35.89732571351474,
        "lon": 76.82254469107463,
        "alt_km": 521.128543871172,
        "timestamp": "2025-12-25T20:42:37.407140+00:00",
        "meta_object_name": "TRANSPORTER-15T",
        "meta_object_id": "2025-276T",
        "meta_epoch": "2025-12-25T05:02:23.846208",
        "meta_mean_motion": 15.17068591,
        "meta_eccentricity": 0.00047629,
        "meta_inclination": 97.4441,
        "meta_ra_of_asc_node": 70.7507,
        "meta_arg_of_pericenter": 234.2333,
        "meta_mean_anomaly": 125.8458,
        "meta_ephemeris_type": 0,
        "meta_classification_type": "U",
        "meta_norad_cat_id": 66683,
        "meta_element_set_no": 999,
        "meta_rev_at_epoch": 401,
        "meta_bstar": 0.00075554629,
        "meta_mean_motion_dot": 0.00014915,
        "meta_mean_motion_ddot": 0,
        "tle_line1": "1 66683U 25276T   25359.20999822  .00014915  00000+0  75555-3 0  9995",
        "tle_line2": "2 66683  97.4441  70.7507 0004762 234.2333 125.8458 15.17068591  4016"
      },
      "geometry": {
        "type": "Point",
        "coordinates": [
          76.82254469107463,
          -35.89732571351474
        ]
      }
    },
    {
      "type": "Feature",
      "properties": {
        "norad_id": 66684,
        "name": "TRANSPORTER-15U",
        "group": "last-30-days",
        "lat": -15.660197204308645,
        "lon": 73.51047626307346,
        "alt_km": 520.0473862119388,
        "timestamp": "2025-12-25T20:42:37.407150+00:00",
        "meta_object_name": "TRANSPORTER-15U",
        "meta_object_id": "2025-276U",
        "meta_epoch": "2025-12-25T04:57:11.195712",
        "meta_mean_motion": 15.17376367,
        "meta_eccentricity": 0.00046232,
        "meta_inclination": 97.447,
        "meta_ra_of_asc_node": 70.7636,
        "meta_arg_of_pericenter": 229.485,
        "meta_mean_anomaly": 130.5982,
        "meta_ephemeris_type": 0,
        "meta_classification_type": "U",
        "meta_norad_cat_id": 66684,
        "meta_element_set_no": 999,
        "meta_rev_at_epoch": 401,
        "meta_bstar": 0.00063536978,
        "meta_mean_motion_dot": 0.00012638,
        "meta_mean_motion_ddot": 0,
        "tle_line1": "1 66684U 25276U   25359.20637958  .00012638  00000+0  63537-3 0  9992",
        "tle_line2": "2 66684  97.4470  70.7636 0004623 229.4850 130.5982 15.17376367  4016"
      },
      "geometry": {
        "type": "Point",
        "coordinates": [
          73.51047626307346,
          -15.660197204308645
        ]
      }
    },
    {
      "type": "Feature",
      "properties": {
        "norad_id": 66685,
        "name": "TRANSPORTER-15V",
        "group": "last-30-days",
        "lat": -6.951363963685262,
        "lon": 72.3069226777998,
        "alt_km": 517.7596732852444,
        "timestamp": "2025-12-25T20:42:37.407159+00:00",
        "meta_object_name": "TRANSPORTER-15V",
        "meta_object_id": "2025-276V",
        "meta_epoch": "2025-12-25T03:20:01.114656",
        "meta_mean_motion": 15.17536428,
        "meta_eccentricity": 0.00040365,
        "meta_inclination": 97.4415,
        "meta_ra_of_asc_node": 70.6824,
        "meta_arg_of_pericenter": 253.1785,
        "meta_mean_anomaly": 106.9006,
        "meta_ephemeris_type": 0,
        "meta_classification_type": "U",
        "meta_norad_cat_id": 66685,
        "meta_element_set_no": 999,
        "meta_rev_at_epoch": 400,
        "meta_bstar": 0.00082702914,
        "meta_mean_motion_dot": 0.00016554,
        "meta_mean_motion_ddot": 0,
        "tle_line1": "1 66685U 25276V   25359.13890179  .00016554  00000+0  82703-3 0  9998",
        "tle_line2": "2 66685  97.4415  70.6824 0004036 253.1785 106.9006 15.17536428  4002"
      },
      "geometry": {
        "type": "Point",
        "coordinates": [
          72.3069226777998,
          -6.951363963685262
        ]
      }
    },
    {
      "type": "Feature",
      "properties": {
        "norad_id": 66686,
        "name": "TRANSPORTER-15W",
        "group": "last-30-days",
        "lat": -17.47349504531035,
        "lon": 73.74351609776781,
        "alt_km": 519.1651718053399,
        "timestamp": "2025-12-25T20:42:37.407174+00:00",
        "meta_object_name": "TRANSPORTER-15W",
        "meta_object_id": "2025-276W",
        "meta_epoch": "2025-12-24T16:18:47.855520",
        "meta_mean_motion": 15.18035485,
        "meta_eccentricity": 0.00181838,
        "meta_inclination": 97.4405,
        "meta_ra_of_asc_node": 70.2223,
        "meta_arg_of_pericenter": 243.6801,
        "meta_mean_anomaly": 116.2566,
        "meta_ephemeris_type": 0,
        "meta_classification_type": "U",
        "meta_norad_cat_id": 66686,
        "meta_element_set_no": 999,
        "meta_rev_at_epoch": 393,
        "meta_bstar": 0.0029615296,
        "meta_mean_motion_dot": 0.00060911,
        "meta_mean_motion_ddot": 0,
        "tle_line1": "1 66686U 25276W   25358.67972055  .00060911  00000+0  29615-2 0  9999",
        "tle_line2": "2 66686  97.4405  70.2223 0018183 243.6801 116.2566 15.18035485  3936"
      },
      "geometry": {
        "type": "Point",
        "coordinates": [
          73.74351609776781,
          -17.47349504531035
        ]
      }
    },
    {
      "type": "Feature",
      "properties": {
        "norad_id": 66687,
        "name": "TRANSPORTER-15X",
        "group": "last-30-days",
        "lat": -63.46432039993347,
        "lon": 86.52475114167241,
        "alt_km": 524.5813433749136,
        "timestamp": "2025-12-25T20:42:37.407185+00:00",
        "meta_object_name": "TRANSPORTER-15X",
        "meta_object_id": "2025-276X",
        "meta_epoch": "2025-12-25T06:44:39.277824",
        "meta_mean_motion": 15.1676553,
        "meta_eccentricity": 0.00080971,
        "meta_inclination": 97.4384,
        "meta_ra_of_asc_node": 70.7868,
        "meta_arg_of_pericenter": 46.2401,
        "meta_mean_anomaly": 313.9501,
        "meta_ephemeris_type": 0,
        "meta_classification_type": "U",
        "meta_norad_cat_id": 66687,
        "meta_element_set_no": 999,
        "meta_rev_at_epoch": 402,
        "meta_bstar": 0.00069396831,
        "meta_mean_motion_dot": 0.0001358,
        "meta_mean_motion_ddot": 0,
        "tle_line1": "1 66687U 25276X   25359.28101016  .00013580  00000+0  69397-3 0  9991",
        "tle_line2": "2 66687  97.4384  70.7868 0008097  46.2401 313.9501 15.16765530  4024"
      },
      "geometry": {
        "type": "Point",
        "coordinates": [
          86.52475114167241,
          -63.46432039993347
        ]
      }
    },
    {
      "type": "Feature",
      "properties": {
        "norad_id": 66688,
        "name": "TRANSPORTER-15Y",
        "group": "last-30-days",
        "lat": -26.04813060203772,
        "lon": 75.05422957046679,
        "alt_km": 520.6908717889546,
        "timestamp": "2025-12-25T20:42:37.407195+00:00",
        "meta_object_name": "TRANSPORTER-15Y",
        "meta_object_id": "2025-276Y",
        "meta_epoch": "2025-12-25T03:24:48.818016",
        "meta_mean_motion": 15.17112958,
        "meta_eccentricity": 0.00037676,
        "meta_inclination": 97.4427,
        "meta_ra_of_asc_node": 70.683,
        "meta_arg_of_pericenter": 237.2759,
        "meta_mean_anomaly": 122.8112,
        "meta_ephemeris_type": 0,
        "meta_classification_type": "U",
        "meta_norad_cat_id": 66688,
        "meta_element_set_no": 999,
        "meta_rev_at_epoch": 400,
        "meta_bstar": 0.00050885375,
        "meta_mean_motion_dot": 0.00010028,
        "meta_mean_motion_ddot": 0,
        "tle_line1": "1 66688U 25276Y   25359.14223169  .00010028  00000+0  50885-3 0  9997",
        "tle_line2": "2 66688  97.4427  70.6830 0003767 237.2759 122.8112 15.17112958  4002"
      },
      "geometry": {
        "type": "Point",
        "coordinates": [
          75.05422957046679,
          -26.04813060203772
        ]
      }
    },
    {
      "type": "Feature",
      "properties": {
        "norad_id": 66689,
        "name": "TRANSPORTER-15Z",
        "group": "last-30-days",
        "lat": 38.3298336480521,
        "lon": -102.61431741612017,
        "alt_km": 454.341184817029,
        "timestamp": "2025-12-25T20:42:37.407205+00:00",
        "meta_object_name": "TRANSPORTER-15Z",
        "meta_object_id": "2025-276Z",
        "meta_epoch": "2025-12-22T21:27:46.425312",
        "meta_mean_motion": 15.23073772,
        "meta_eccentricity": 0.00272271,
        "meta_inclination": 97.4409,
        "meta_ra_of_asc_node": 68.4858,
        "meta_arg_of_pericenter": 260.8557,
        "meta_mean_anomaly": 98.9599,
        "meta_ephemeris_type": 0,
        "meta_classification_type": "U",
        "meta_norad_cat_id": 66689,
        "meta_element_set_no": 999,
        "meta_rev_at_epoch": 366,
        "meta_bstar": 0.086131248,
        "meta_mean_motion_dot": 0.02294864,
        "meta_mean_motion_ddot": 0,
        "tle_line1": "1 66689U 25276Z   25356.89428733  .02294864  00000+0  86131-1 0  9996",
        "tle_line2": "2 66689  97.4409  68.4858 0027227 260.8557  98.9599 15.23073772  3663"
      },
      "geometry": {
        "type": "Point",
        "coordinates": [
          -102.61431741612017,
          38.3298336480521
        ]
      }
    }
  ]
}